{"fetched_at":"2026-03-29T16:36:15Z","count":15609,"tles":[{"name":"STARLINK-34526","line1":"1 64481U 25133K   26087.25184868  .00042209  00000+0  14285-2 0  9990","line2":"2 64481  53.1605  30.3466 0001283  97.2072 262.9074 15.30215472 43926","category":"Starlink"}]}