{
  "norad_id": 64481,
  "name": "STARLINK-34526",
  "history": [
    {
      "epoch": "2026-03-28T06:02:39.725952Z",
      "apogee_km": 476.04815234894795,
      "perigee_km": 474.2895940618837,
      "latitude_deg": -5.007941563459287e-05,
      "longitude_deg": 114.00606882951152,
      "height_km": 476.1773219478013,
      "semi_major_axis_km": 6853.305873205415,
      "eccentricity": 0.0001283,
      "inclination_deg": 53.1605,
      "raan_deg": 30.3466,
      "arg_perigee_deg": 97.2072,
      "mean_anomaly_deg": 262.9074,
      "mean_motion_rev_day": 15.30215472
    }
  ]
}